[{"OBJECT_NAME":"STARLINK-35510","OBJECT_ID":"2025-257T","EPOCH":"2026-03-09T17:29:00.309984","MEAN_MOTION":15.30208609,"ECCENTRICITY":7.038e-5,"INCLINATION":53.1604,"RA_OF_ASC_NODE":216.5401,"ARG_OF_PERICENTER":70.6158,"MEAN_ANOMALY":289.4918,"EPHEMERIS_TYPE":0,"CLASSIFICATION_TYPE":"U","NORAD_CAT_ID":66397,"ELEMENT_SET_NO":999,"REV_AT_EPOCH":1974,"BSTAR":0.0011929486,"MEAN_MOTION_DOT":0.00035149,"MEAN_MOTION_DDOT":0},{"OBJECT_NAME":"PEGASUS DEB","OBJECT_ID":"1994-029AG","EPOCH":"2026-03-09T11:16:42.963744","MEAN_MOTION":15.37636263,"ECCENTRICITY":0.0031206,"INCLINATION":82.0362,"RA_OF_ASC_NODE":86.2933,"ARG_OF_PERICENTER":155.6019,"MEAN_ANOMALY":204.671,"EPHEMERIS_TYPE":0,"CLASSIFICATION_TYPE":"U","NORAD_CAT_ID":23986,"ELEMENT_SET_NO":999,"REV_AT_EPOCH":61542,"BSTAR":0.00061808813,"MEAN_MOTION_DOT":0.00023279,"MEAN_MOTION_DDOT":0}]
